OBJECT_NAME,OBJECT_ID,EPOCH,MEAN_MOTION,ECCENTRICITY,INCLINATION,RA_OF_ASC_NODE,ARG_OF_PERICENTER,MEAN_ANOMALY,EPHEMERIS_TYPE,CLASSIFICATION_TYPE,NORAD_CAT_ID,ELEMENT_SET_NO,REV_AT_EPOCH,BSTAR,MEAN_MOTION_DOT,MEAN_MOTION_DDOT
STARLINK-34222,2025-113X,2026-07-19T04:20:47.490144,15.30202025,.00017492,53.1593,200.5978,97.5272,262.5927,0,U,64191,999,6515,.36096639E-3,.10347E-3,0
STARLINK-34265,2025-113Y,2026-07-19T07:10:39.803520,15.30199339,.00012645,53.1552,199.9198,80.1252,279.9891,0,U,64192,999,6517,.21027628E-3,.5873E-4,0
STARLINK-34245,2025-113Z,2026-07-19T04:22:22.628640,15.34396241,.00014949,53.1597,197.7781,91.9264,268.1910,0,U,64193,999,6519,.23624869E-3,.7613E-4,0
STARLINK-34237,2025-113AA,2026-07-19T06:22:14.962080,15.31707509,.00016645,53.1585,198.9994,89.6349,270.4843,0,U,64194,999,6518,.26313292E-3,.7811E-4,0
STARLINK-33857,2025-113AB,2026-07-19T04:42:11.179872,15.31715340,.00015254,53.1596,199.9892,85.9474,274.1701,0,U,64195,999,6516,.23282351E-3,.687E-4,0
STARLINK-34173,2025-113AC,2026-07-19T05:08:27.273120,15.31704201,.00011801,53.1578,199.3947,83.8791,276.2345,0,U,64196,999,6521,.17018549E-3,.492E-4,0
STARLINK-33966,2025-117A,2026-07-19T06:41:33.641376,15.30203771,.00014086,53.1583,148.3148,97.0425,263.0736,0,U,64203,999,6470,.25543351E-3,.7214E-4,0
STARLINK-34331,2025-117B,2026-07-19T05:23:03.662880,15.34392573,.00014495,53.1597,147.2677,88.3596,271.7572,0,U,64204,999,6468,.14094817E-3,.4388E-4,0
STARLINK-34251,2025-117C,2026-07-19T03:40:10.478784,15.34393867,.00011044,53.1579,147.5316,97.4438,262.6690,0,U,64205,999,6467,.17703482E-3,.5609E-4,0
STARLINK-34311,2025-117D,2026-07-19T05:44:16.299456,15.34392839,.00015364,53.1597,147.3599,76.2282,283.8891,0,U,64206,999,6471,.36989197E-3,.12139E-3,0
STARLINK-34324,2025-117E,2026-07-19T03:28:54.384096,15.30199751,.00012297,53.1573,148.9006,89.0293,271.0849,0,U,64207,999,6362,.31851777E-3,.9086E-4,0
STARLINK-34327,2025-117F,2026-07-19T06:15:44.930016,15.30201487,.00010555,53.1589,148.2029,80.9591,279.1529,0,U,64208,999,6363,.39673558E-3,.1141E-3,0
STARLINK-33944,2025-117G,2026-07-19T03:21:16.928064,15.30195025,.00010536,53.1581,148.8775,100.0031,260.1089,0,U,64209,999,6468,-.21083662E-4,-.983E-5,0
STARLINK-34310,2025-117H,2026-07-19T06:18:45.272736,15.30217311,.00011565,53.1590,148.2144,87.3586,272.7547,0,U,64210,999,6467,.31338774E-3,.8939E-4,0
STARLINK-34258,2025-117J,2026-07-19T06:41:42.360864,15.34397786,.00011162,53.1579,146.8940,84.7199,275.3931,0,U,64211,999,6469,.26649385E-3,.8638E-4,0
STARLINK-34284,2025-117K,2026-07-19T06:11:10.191840,15.30204434,.00012521,53.1597,148.1788,80.2252,279.8890,0,U,64212,999,6467,.34351667E-3,.983E-4,0
STARLINK-34332,2025-117L,2026-07-19T05:17:00.035520,15.34394616,.00014101,53.1583,147.2389,100.6580,259.4581,0,U,64213,999,6471,.28839718E-3,.9378E-4,0
STARLINK-34283,2025-117M,2026-07-19T03:48:34.068096,15.34397419,.00015543,53.1593,146.1510,74.7109,285.4065,0,U,64214,999,6469,.23805113E-3,.7674E-4,0
STARLINK-34349,2025-117N,2026-07-19T06:53:49.427232,15.34402001,.00014501,53.1583,146.9449,91.7704,268.3465,0,U,64215,999,6469,.26365977E-3,.8543E-4,0
STARLINK-34296,2025-117P,2026-07-19T03:25:51.878784,15.30194166,.00013735,53.1571,148.8818,96.8299,263.2858,0,U,64216,999,6468,.33648348E-3,.9618E-4,0
STARLINK-34320,2025-117Q,2026-07-19T06:59:53.261088,15.34402817,.00012885,53.1589,146.9768,96.6964,263.4185,0,U,64217,999,6469,.29057277E-3,.9454E-4,0
STARLINK-34300,2025-117R,2026-07-19T06:20:17.815776,15.30189092,.00012159,53.1586,148.2208,76.2591,283.8545,0,U,64218,999,6467,.38793911E-3,.11144E-3,0
STARLINK-34323,2025-117S,2026-07-19T03:19:46.872480,15.30193025,.00013697,53.1584,148.8589,105.3269,254.7883,0,U,64219,999,6468,.13043134E-3,.3505E-4,0
STARLINK-34328,2025-117T,2026-07-19T05:47:17.856096,15.34398737,.00012331,53.1593,147.3664,90.2002,269.9142,0,U,64220,999,6468,.28003853E-3,.9096E-4,0
STARLINK-34326,2025-117U,2026-07-19T05:38:13.035840,15.34416415,.00015705,53.1596,147.3312,93.8597,266.2585,0,U,64221,999,6471,.25234987E-3,.8163E-4,0
STARLINK-34318,2025-117V,2026-07-19T03:37:08.713056,15.34396989,.00013154,53.1581,147.5149,90.2752,269.8402,0,U,64222,999,6467,.27494056E-3,.8923E-4,0
STARLINK-34337,2025-117W,2026-07-19T05:32:08.935872,15.34394161,.00013401,53.1584,147.3041,89.7563,270.3593,0,U,64223,999,6468,.142007E-3,.4424E-4,0
STARLINK-34304,2025-117X,2026-07-19T03:30:25.086816,15.30200776,.00014059,53.1579,148.9016,91.6921,268.4241,0,U,64224,999,6468,.20073068E-3,.559E-4,0
STARLINK-34289,2025-117Y,2026-07-19T05:29:07.139904,15.34397340,.00012562,53.1586,147.2911,96.9169,263.1977,0,U,64225,999,6471,.29066688E-3,.9456E-4,0
STARLINK-34347,2025-117Z,2026-07-19T05:50:19.071456,15.34377873,.00010224,53.1591,147.3781,57.8516,302.2585,0,U,64226,999,6468,-.71199558E-4,-.2779E-4,0
STARLINK-34330,2025-117AA,2026-07-19T02:02:26.548800,15.30198840,.00014834,53.1580,149.2267,89.7631,270.3539,0,U,64227,999,6464,.22266724E-3,.6241E-4,0
STARLINK-34167,2025-117AB,2026-07-19T05:13:15.968352,15.34402798,.00012523,53.1568,145.8013,96.2074,263.9071,0,U,64228,999,6473,.2802694E-3,.9105E-4,0
STARLINK-34241,2025-117AC,2026-07-19T03:31:05.668896,15.34396341,.00011932,53.1575,147.5514,103.2925,256.8210,0,U,64229,999,6470,.27670785E-3,.8983E-4,0
STARLINK-11686 [DTC],2025-119A,2026-07-19T04:39:31.189536,15.70852013,.00018603,43.0019,136.7482,279.3131,80.7526,0,U,64233,999,6592,.79330488E-3,.102663E-2,0
STARLINK-11682 [DTC],2025-119B,2026-07-19T05:01:08.840640,15.70854665,.00013988,43.0012,136.8683,285.4613,74.6100,0,U,64234,999,6592,.98500487E-3,.127983E-2,0
STARLINK-11675 [DTC],2025-119C,2026-07-19T05:46:49.937664,15.70842062,.00014611,43.0007,136.2278,259.1158,100.9545,0,U,64235,999,6593,.10130392E-2,.131627E-2,0
STARLINK-11691 [DTC],2025-119D,2026-07-19T05:23:53.670336,15.71003283,.00025962,43.0010,136.1002,280.1708,79.8867,0,U,64236,999,6593,.12706589E-2,.167066E-2,0
STARLINK-11670 [DTC],2025-119E,2026-07-19T04:38:12.448896,15.70849176,.00018289,43.0016,136.7389,274.0612,86.0047,0,U,64237,999,6592,.76266612E-3,.9862E-3,0
STARLINK-11708 [DTC],2025-119F,2026-07-19T04:45:51.028128,15.70940761,.00026899,43.0009,136.7825,273.3319,86.7241,0,U,64238,999,6592,.10119342E-2,.132048E-2,0
STARLINK-11683 [DTC],2025-119G,2026-07-19T05:08:36.374496,15.70848394,.00014097,43.0012,136.0146,291.8921,68.1797,0,U,64239,999,6593,.72758839E-3,.94006E-3,0
STARLINK-11684 [DTC],2025-119H,2026-07-19T04:22:54.894720,15.70857100,.00026185,43.0020,136.6510,271.1748,88.8820,0,U,64240,999,6592,.99065137E-3,.128755E-2,0
STARLINK-11689 [DTC],2025-119J,2026-07-19T04:07:37.749216,15.70851530,.00014222,43.0012,136.5683,278.9516,81.1190,0,U,64241,999,6592,.79923094E-3,.103438E-2,0
STARLINK-11690 [DTC],2025-119K,2026-07-19T02:28:25.162464,15.70937644,.00008698,42.9956,136.9063,183.5005,176.5857,0,U,64242,999,6591,.91875593E-3,.119641E-2,0
STARLINK-11694 [DTC],2025-119L,2026-07-19T05:02:20.070528,15.78710470,.00067315,42.9915,135.0540,186.4460,173.6324,0,U,64243,999,6594,.11541462E-2,.213757E-2,0
STARLINK-11710 [DTC],2025-119M,2026-07-19T04:30:33.604416,15.70840910,.00018056,43.0010,136.6933,268.5642,91.5019,0,U,64244,999,6592,.7557962E-3,.97682E-3,0
STARLINK-11704 [DTC],2025-119N,2026-07-19T05:16:14.903616,15.70850091,.00016521,43.0015,136.0528,274.4329,85.6350,0,U,64245,999,6593,.75667754E-3,.97835E-3,0
STARLINK-34203,2025-119P,2026-07-19T06:26:43.634112,15.27585629,.00010101,42.9969,283.8768,285.1848,74.8892,0,U,64246,999,6430,.21950098E-3,.5784E-4,0
STARLINK-33865,2025-119Q,2026-07-19T06:04:31.435968,15.27582543,.00013511,43.0001,283.7556,269.3623,90.7074,0,U,64247,999,6426,.24867236E-3,.6587E-4,0
STARLINK-34234,2025-119R,2026-07-19T06:41:31.547040,15.27581618,.00016544,42.9992,283.9453,262.0086,98.0578,0,U,64248,999,6429,.22173634E-3,.5845E-4,0
STARLINK-34256,2025-119S,2026-07-18T22:24:50.516928,15.27580762,.0001383,42.9985,285.6586,272.6230,87.4463,0,U,64249,999,6424,.22232822E-3,.5861E-4,0
STARLINK-34229,2025-119T,2026-07-19T07:07:25.609152,15.27604488,.00018799,43.0019,284.0881,216.1756,143.8969,0,U,64250,999,6429,.1813978E-3,.4736E-4,0
STARLINK-34224,2025-119U,2026-07-19T06:10:04.344672,15.27584202,.00011004,42.9985,283.7872,268.9775,91.0951,0,U,64251,999,6429,.18361452E-3,.4795E-4,0
STARLINK-34215,2025-119V,2026-07-19T06:35:58.742880,15.27576464,.00013796,43.0012,283.9223,269.3321,90.7372,0,U,64252,999,6429,.59851902E-4,.1385E-4,0
STARLINK-33893,2025-119W,2026-07-18T13:42:28.198944,15.27579024,.0002662,43.0022,288.0970,289.5073,70.5491,0,U,64253,999,6418,.32076E-3,.8575E-4,0
STARLINK-34183,2025-119X,2026-07-19T07:12:59.078592,15.27584464,.00014549,43.0013,284.1142,247.4745,112.5953,0,U,64254,999,6429,.30754792E-3,.8212E-4,0
STARLINK-34211,2025-119Y,2026-07-19T07:18:32.169600,15.27585911,.0001263,42.9994,284.1431,236.4560,123.6171,0,U,64255,999,6429,.28529646E-3,.7598E-4,0
STARLINK-34329,2025-120A,2026-07-19T05:48:07.988832,15.34393709,.00015461,53.1550,221.6566,82.4144,277.7034,0,U,64256,999,6411,.20757668E-3,.6642E-4,0
STARLINK-34352,2025-120B,2026-07-19T05:42:45.503424,15.34394230,.00011819,53.1568,225.1788,77.8259,282.2876,0,U,64257,999,6401,.21202952E-3,.6793E-4,0
STARLINK-34308,2025-120C,2026-07-18T19:00:37.680192,15.34410614,.00006761,53.1561,223.8245,80.6745,279.4334,0,U,64258,999,6399,.2028095E-5,-.307E-5,0
STARLINK-34306,2025-120D,2026-07-19T05:36:00.684000,15.34399699,.00012065,53.1570,221.6012,72.6404,287.4731,0,U,64259,999,6406,.27406758E-3,.8895E-4,0
STARLINK-34281,2025-120E,2026-07-18T19:03:40.757472,15.34392811,.00012053,53.1562,223.8356,90.9170,269.1970,0,U,64260,999,6399,.19372057E-3,.6173E-4,0
STARLINK-34297,2025-120F,2026-07-19T07:37:04.605888,15.34396934,.00014644,53.1577,221.4143,96.0782,264.0388,0,U,64261,999,6401,.31200723E-3,.10179E-3,0
STARLINK-34325,2025-120G,2026-07-19T05:45:48.806208,15.34368983,.00024093,53.1572,225.1906,117.0605,243.0644,0,U,64262,999,6406,.32219865E-3,.10514E-3,0
